[{"OBJECT_NAME":"STARLINK-36810","OBJECT_ID":"2026-035V","EPOCH":"2026-03-20T14:00:01.999872","MEAN_MOTION":15.75195835,"ECCENTRICITY":0.00015246,"INCLINATION":97.2877,"RA_OF_ASC_NODE":12.5585,"ARG_OF_PERICENTER":102.7108,"MEAN_ANOMALY":172.0581,"EPHEMERIS_TYPE":0,"CLASSIFICATION_TYPE":"U","NORAD_CAT_ID":67898,"ELEMENT_SET_NO":999,"REV_AT_EPOCH":551,"BSTAR":-6.806457e-5,"MEAN_MOTION_DOT":-0.00010273,"MEAN_MOTION_DDOT":0},{"OBJECT_NAME":"STARLINK-36878","OBJECT_ID":"2026-035W","EPOCH":"2026-03-20T06:31:24.835872","MEAN_MOTION":15.81013042,"ECCENTRICITY":0.0001504,"INCLINATION":97.2896,"RA_OF_ASC_NODE":12.2498,"ARG_OF_PERICENTER":72.6511,"MEAN_ANOMALY":287.4921,"EPHEMERIS_TYPE":0,"CLASSIFICATION_TYPE":"U","NORAD_CAT_ID":67899,"ELEMENT_SET_NO":999,"REV_AT_EPOCH":551,"BSTAR":0.0021875,"MEAN_MOTION_DOT":0.00444948,"MEAN_MOTION_DDOT":0},{"OBJECT_NAME":"STARLINK-36361","OBJECT_ID":"2026-035X","EPOCH":"2026-03-20T08:01:28.524288","MEAN_MOTION":15.8082931,"ECCENTRICITY":0.00017787,"INCLINATION":97.2889,"RA_OF_ASC_NODE":12.3176,"ARG_OF_PERICENTER":136.828,"MEAN_ANOMALY":223.3128,"EPHEMERIS_TYPE":0,"CLASSIFICATION_TYPE":"U","NORAD_CAT_ID":67900,"ELEMENT_SET_NO":999,"REV_AT_EPOCH":552,"BSTAR":0.001405751,"MEAN_MOTION_DOT":0.00278058,"MEAN_MOTION_DDOT":0},{"OBJECT_NAME":"STARLINK-36336","OBJECT_ID":"2026-035Y","EPOCH":"2026-03-20T14:00:01.999872","MEAN_MOTION":15.75186724,"ECCENTRICITY":0.0001483,"INCLINATION":97.2868,"RA_OF_ASC_NODE":12.5751,"ARG_OF_PERICENTER":92.794,"MEAN_ANOMALY":215.981,"EPHEMERIS_TYPE":0,"CLASSIFICATION_TYPE":"U","NORAD_CAT_ID":67901,"ELEMENT_SET_NO":999,"REV_AT_EPOCH":556,"BSTAR":-4.6992014e-5,"MEAN_MOTION_DOT":-7.132e-5,"MEAN_MOTION_DDOT":0},{"OBJECT_NAME":"STARLINK-36876","OBJECT_ID":"2026-035Z","EPOCH":"2026-03-20T14:04:59.697984","MEAN_MOTION":15.80984139,"ECCENTRICITY":0.00036532,"INCLINATION":97.2883,"RA_OF_ASC_NODE":12.5886,"ARG_OF_PERICENTER":175.0971,"MEAN_ANOMALY":185.0334,"EPHEMERIS_TYPE":0,"CLASSIFICATION_TYPE":"U","NORAD_CAT_ID":67902,"ELEMENT_SET_NO":999,"REV_AT_EPOCH":556,"BSTAR":0.00209293,"MEAN_MOTION_DOT":0.00424141,"MEAN_MOTION_DDOT":0},{"OBJECT_NAME":"STARLINK-36257","OBJECT_ID":"2026-035AA","EPOCH":"2026-03-20T08:31:34.051008","MEAN_MOTION":15.75191522,"ECCENTRICITY":0.00018042,"INCLINATION":97.2877,"RA_OF_ASC_NODE":12.2923,"ARG_OF_PERICENTER":94.472,"MEAN_ANOMALY":265.6751,"EPHEMERIS_TYPE":0,"CLASSIFICATION_TYPE":"U","NORAD_CAT_ID":67903,"ELEMENT_SET_NO":999,"REV_AT_EPOCH":552,"BSTAR":0.001361755,"MEAN_MOTION_DOT":0.00208026,"MEAN_MOTION_DDOT":0},{"OBJECT_NAME":"STARLINK-36814","OBJECT_ID":"2026-036A","EPOCH":"2026-03-20T08:38:24.387072","MEAN_MOTION":15.50618081,"ECCENTRICITY":0.00026357,"INCLINATION":43.0011,"RA_OF_ASC_NODE":186.79,"ARG_OF_PERICENTER":285.8456,"MEAN_ANOMALY":74.2114,"EPHEMERIS_TYPE":0,"CLASSIFICATION_TYPE":"U","NORAD_CAT_ID":67904,"ELEMENT_SET_NO":999,"REV_AT_EPOCH":533,"BSTAR":0.0012599553,"MEAN_MOTION_DOT":0.00074388,"MEAN_MOTION_DDOT":0},{"OBJECT_NAME":"STARLINK-36729","OBJECT_ID":"2026-036B","EPOCH":"2026-03-20T12:00:00.999648","MEAN_MOTION":15.50595996,"ECCENTRICITY":0.00012526,"INCLINATION":43.0001,"RA_OF_ASC_NODE":185.3258,"ARG_OF_PERICENTER":278.6074,"MEAN_ANOMALY":46.1014,"EPHEMERIS_TYPE":0,"CLASSIFICATION_TYPE":"U","NORAD_CAT_ID":67905,"ELEMENT_SET_NO":999,"REV_AT_EPOCH":538,"BSTAR":-0.0012779575,"MEAN_MOTION_DOT":-0.00074646,"MEAN_MOTION_DDOT":0},{"OBJECT_NAME":"STARLINK-36763","OBJECT_ID":"2026-036C","EPOCH":"2026-03-20T14:00:01.999872","MEAN_MOTION":15.50546481,"ECCENTRICITY":0.00018424,"INCLINATION":43,"RA_OF_ASC_NODE":184.7649,"ARG_OF_PERICENTER":287.122,"MEAN_ANOMALY":173.0688,"EPHEMERIS_TYPE":0,"CLASSIFICATION_TYPE":"U","NORAD_CAT_ID":67906,"ELEMENT_SET_NO":999,"REV_AT_EPOCH":539,"BSTAR":0.0014000777,"MEAN_MOTION_DOT":0.0008257,"MEAN_MOTION_DDOT":0},{"OBJECT_NAME":"STARLINK-36742","OBJECT_ID":"2026-036D","EPOCH":"2026-03-20T14:00:01.999872","MEAN_MOTION":15.50585389,"ECCENTRICITY":0.00010969,"INCLINATION":43.0002,"RA_OF_ASC_NODE":184.8161,"ARG_OF_PERICENTER":275.4657,"MEAN_ANOMALY":164.2549,"EPHEMERIS_TYPE":0,"CLASSIFICATION_TYPE":"U","NORAD_CAT_ID":67907,"ELEMENT_SET_NO":999,"REV_AT_EPOCH":539,"BSTAR":-0.00094765766,"MEAN_MOTION_DOT":-0.00055554,"MEAN_MOTION_DDOT":0},{"OBJECT_NAME":"STARLINK-36827","OBJECT_ID":"2026-036E","EPOCH":"2026-03-20T14:00:01.999872","MEAN_MOTION":15.50448657,"ECCENTRICITY":0.00010992,"INCLINATION":43.0003,"RA_OF_ASC_NODE":184.502,"ARG_OF_PERICENTER":273.2575,"MEAN_ANOMALY":293.1866,"EPHEMERIS_TYPE":0,"CLASSIFICATION_TYPE":"U","NORAD_CAT_ID":67908,"ELEMENT_SET_NO":999,"REV_AT_EPOCH":539,"BSTAR":-0.037131772,"MEAN_MOTION_DOT":-0.01943217,"MEAN_MOTION_DDOT":0},{"OBJECT_NAME":"STARLINK-36822","OBJECT_ID":"2026-036F","EPOCH":"2026-03-20T14:00:01.999872","MEAN_MOTION":15.50576486,"ECCENTRICITY":0.00016246,"INCLINATION":43,"RA_OF_ASC_NODE":184.7579,"ARG_OF_PERICENTER":277.6039,"MEAN_ANOMALY":185.5137,"EPHEMERIS_TYPE":0,"CLASSIFICATION_TYPE":"U","NORAD_CAT_ID":67909,"ELEMENT_SET_NO":999,"REV_AT_EPOCH":539,"BSTAR":-0.00067491601,"MEAN_MOTION_DOT":-0.00039732,"MEAN_MOTION_DDOT":0},{"OBJECT_NAME":"STARLINK-36847","OBJECT_ID":"2026-036G","EPOCH":"2026-03-20T14:00:01.999872","MEAN_MOTION":15.50588991,"ECCENTRICITY":0.00013134,"INCLINATION":43.0002,"RA_OF_ASC_NODE":184.8043,"ARG_OF_PERICENTER":305.4852,"MEAN_ANOMALY":138.6095,"EPHEMERIS_TYPE":0,"CLASSIFICATION_TYPE":"U","NORAD_CAT_ID":67910,"ELEMENT_SET_NO":999,"REV_AT_EPOCH":539,"BSTAR":-0.0012279428,"MEAN_MOTION_DOT":-0.00071747,"MEAN_MOTION_DDOT":0},{"OBJECT_NAME":"STARLINK-36736","OBJECT_ID":"2026-036H","EPOCH":"2026-03-20T12:00:00.999648","MEAN_MOTION":15.48265097,"ECCENTRICITY":0.00011287,"INCLINATION":42.9995,"RA_OF_ASC_NODE":184.7334,"ARG_OF_PERICENTER":286.3327,"MEAN_ANOMALY":278.3522,"EPHEMERIS_TYPE":0,"CLASSIFICATION_TYPE":"U","NORAD_CAT_ID":67911,"ELEMENT_SET_NO":999,"REV_AT_EPOCH":538,"BSTAR":-0.039404638,"MEAN_MOTION_DOT":-0.01911517,"MEAN_MOTION_DDOT":0},{"OBJECT_NAME":"STARLINK-36676","OBJECT_ID":"2026-036J","EPOCH":"2026-03-20T14:00:01.999872","MEAN_MOTION":15.50589481,"ECCENTRICITY":0.00017932,"INCLINATION":43.0003,"RA_OF_ASC_NODE":184.3696,"ARG_OF_PERICENTER":265.2529,"MEAN_ANOMALY":354.5796,"EPHEMERIS_TYPE":0,"CLASSIFICATION_TYPE":"U","NORAD_CAT_ID":67912,"ELEMENT_SET_NO":999,"REV_AT_EPOCH":539,"BSTAR":-0.0012404555,"MEAN_MOTION_DOT":-0.00072472,"MEAN_MOTION_DDOT":0},{"OBJECT_NAME":"STARLINK-36690","OBJECT_ID":"2026-036K","EPOCH":"2026-03-20T14:00:01.999872","MEAN_MOTION":15.50575994,"ECCENTRICITY":0.00013994,"INCLINATION":43.0004,"RA_OF_ASC_NODE":184.3563,"ARG_OF_PERICENTER":283.3724,"MEAN_ANOMALY":341.8747,"EPHEMERIS_TYPE":0,"CLASSIFICATION_TYPE":"U","NORAD_CAT_ID":67913,"ELEMENT_SET_NO":999,"REV_AT_EPOCH":539,"BSTAR":-5.537088e-6,"MEAN_MOTION_DOT":-6.66e-6,"MEAN_MOTION_DDOT":0}]
