STARLINK-36810          
1 67898U 26035V   26079.58335648 -.00010273  00000+0 -68065-4 0  9993
2 67898  97.2877  12.5585 0001524 102.7108 172.0581 15.75195835  5511
STARLINK-36878          
1 67899U 26035W   26079.27181523  .00444948  00000+0  21875-2 0  9995
2 67899  97.2896  12.2498 0001504  72.6511 287.4921 15.81013042  5519
STARLINK-36361          
1 67900U 26035X   26079.33435792  .00278058  00000+0  14058-2 0  9997
2 67900  97.2889  12.3176 0001778 136.8280 223.3128 15.80829310  5528
STARLINK-36336          
1 67901U 26035Y   26079.58335648 -.00007132  00000+0 -46992-4 0  9993
2 67901  97.2868  12.5751 0001483  92.7940 215.9810 15.75186724  5561
STARLINK-36876          
1 67902U 26035Z   26079.58680206  .00424141  00000+0  20929-2 0  9998
2 67902  97.2883  12.5886 0003653 175.0971 185.0334 15.80984139  5568
STARLINK-36257          
1 67903U 26035AA  26079.35525522  .00208026  00000+0  13618-2 0  9992
2 67903  97.2877  12.2923 0001804  94.4720 265.6751 15.75191522  5527
STARLINK-36814          
1 67904U 26036A   26079.36000448  .00074388  00000+0  12600-2 0  9992
2 67904  43.0011 186.7900 0002635 285.8456  74.2114 15.50618081  5337
STARLINK-36729          
1 67905U 26036B   26079.50001157 -.00074646  00000+0 -12780-2 0  9995
2 67905  43.0001 185.3258 0001252 278.6074  46.1014 15.50595996  5389
STARLINK-36763          
1 67906U 26036C   26079.58335648  .00082570  00000+0  14001-2 0  9990
2 67906  43.0000 184.7649 0001842 287.1220 173.0688 15.50546481  5392
STARLINK-36742          
1 67907U 26036D   26079.58335648 -.00055554  00000+0 -94766-3 0  9992
2 67907  43.0002 184.8161 0001096 275.4657 164.2549 15.50585389  5398
STARLINK-36827          
1 67908U 26036E   26079.58335648 -.01943217  00000+0 -37132-1 0  9998
2 67908  43.0003 184.5020 0001099 273.2575 293.1866 15.50448657  5399
STARLINK-36822          
1 67909U 26036F   26079.58335648 -.00039732  00000+0 -67492-3 0  9990
2 67909  43.0000 184.7579 0001624 277.6039 185.5137 15.50576486  5392
STARLINK-36847          
1 67910U 26036G   26079.58335648 -.00071747  00000+0 -12279-2 0  9996
2 67910  43.0002 184.8043 0001313 305.4852 138.6095 15.50588991  5397
STARLINK-36736          
1 67911U 26036H   26079.50001157 -.01911517  00000+0 -39405-1 0  9992
2 67911  42.9995 184.7334 0001128 286.3327 278.3522 15.48265097  5389
STARLINK-36676          
1 67912U 26036J   26079.58335648 -.00072472  00000+0 -12405-2 0  9995
2 67912  43.0003 184.3696 0001793 265.2529 354.5796 15.50589481  5397
STARLINK-36690          
1 67913U 26036K   26079.58335648 -.00000666  00000+0 -55371-5 0  9994
2 67913  43.0004 184.3563 0001399 283.3724 341.8747 15.50575994  5391
